FLOCK 4Q-20             
1 58313U 23174BK  26032.79318183  .00044423  00000+0  64849-3 0  9990
2 58313  97.3992 123.7482 0006070 259.6923 100.3647 15.55522567124974
FLOCK 4Q-34             
1 58316U 23174BN  26032.76869807  .00039406  00000+0  65590-3 0  9993
2 58316  97.3932 121.5793 0006367 269.0894  90.9628 15.51913980124863
FLOCK 4Q-7              
1 58318U 23174BQ  26032.93484035  .00027286  00000+0  54609-3 0  9992
2 58318  97.3995 120.6971 0007042 260.1587  99.8867 15.46712154124782
FLOCK 4Q-15             
1 58319U 23174BR  26032.76644323  .00074679  00000+0  12135-2 0  9997
2 58319  97.3986 122.3845 0006256 259.5171 100.5377 15.52432772124888
FLOCK 4Q-2              
1 58320U 23174BS  26032.90229872  .00022165  00000+0  50194-3 0  9994
2 58320  97.3929 118.7391 0006295 262.7313  97.3219 15.43111501124690
FLOCK 4Q-9              
1 58322U 23174BU  26032.78321926  .00017742  00000+0  40683-3 0  9992
2 58322  97.3962 118.6637 0006274 265.9676  94.0854 15.42784255124662
FLOCK 4Q-4              
1 58327U 23174BZ  26032.77744363  .00019323  00000+0  44743-3 0  9998
2 58327  97.3923 118.0686 0005728 289.1986  70.8641 15.42476176124641
FLOCK 4Q-13             
1 58328U 23174CA  26032.93496963  .00023916  00000+0  51108-3 0  9993
2 58328  97.4075 120.4333 0006077 282.4763  77.5805 15.44821610124740
FLOCK 4Q-21             
1 58329U 23174CB  26032.93548281  .00065613  00000+0  10251-2 0  9998
2 58329  97.3996 123.0287 0005235 286.0403  74.0273 15.53568242124936
FLOCK 4BE-18            
1 60480U 24149N   26032.75119143  .00017124  00000+0  47949-3 0  9992
2 60480  97.3843 115.5076 0004543  34.0636 326.0899 15.36689289 81471
FLOCK 4BE-7             
1 60481U 24149P   26032.78736244  .00013618  00000+0  40346-3 0  9991
2 60481  97.3873 115.2185 0003429  42.7599 317.3911 15.34974357 81445
FLOCK 4BE-16            
1 60483U 24149R   26032.76354293  .00156414  00000+0  22738-2 0  9997
2 60483  97.3821 116.8343 0002247 332.9661  27.1476 15.55227813 81559
FLOCK 4BE-26            
1 60484U 24149S   26032.78035610  .00062213  00000+0  16581-2 0  9991
2 60484  97.3841 115.2759 0004608  13.6386 346.4982 15.37936127 81460
FLOCK 4BE-36            
1 60486U 24149U   26032.66962725  .00017375  00000+0  47409-3 0  9999
2 60486  97.3851 115.9218 0004481  44.4993 315.6611 15.37492005 81497
FLOCK 4BE-25            
1 60487U 24149V   26032.79522300  .00014111  00000+0  42113-3 0  9997
2 60487  97.3910 115.3725 0002794  46.2285 313.9189 15.34736950 81443
FLOCK 4BE-31            
1 60488U 24149W   26032.85100415  .00019549  00000+0  52102-3 0  9993
2 60488  97.3906 116.6599 0003362  47.6400 312.5129 15.38200191 81534
