[{"OBJECT_NAME":"FLOCK 4Q-20","OBJECT_ID":"2023-174BK","EPOCH":"2026-02-01T19:02:10.910112","MEAN_MOTION":15.55522567,"ECCENTRICITY":0.00060706,"INCLINATION":97.3992,"RA_OF_ASC_NODE":123.7482,"ARG_OF_PERICENTER":259.6923,"MEAN_ANOMALY":100.3647,"EPHEMERIS_TYPE":0,"CLASSIFICATION_TYPE":"U","NORAD_CAT_ID":58313,"ELEMENT_SET_NO":999,"REV_AT_EPOCH":12497,"BSTAR":0.00064848925,"MEAN_MOTION_DOT":0.00044423,"MEAN_MOTION_DDOT":0},{"OBJECT_NAME":"FLOCK 4Q-34","OBJECT_ID":"2023-174BN","EPOCH":"2026-02-01T18:26:55.513248","MEAN_MOTION":15.5191398,"ECCENTRICITY":0.00063679,"INCLINATION":97.3932,"RA_OF_ASC_NODE":121.5793,"ARG_OF_PERICENTER":269.0894,"MEAN_ANOMALY":90.9628,"EPHEMERIS_TYPE":0,"CLASSIFICATION_TYPE":"U","NORAD_CAT_ID":58316,"ELEMENT_SET_NO":999,"REV_AT_EPOCH":12486,"BSTAR":0.00065590015,"MEAN_MOTION_DOT":0.00039406,"MEAN_MOTION_DDOT":0},{"OBJECT_NAME":"FLOCK 4Q-7","OBJECT_ID":"2023-174BQ","EPOCH":"2026-02-01T22:26:10.206240","MEAN_MOTION":15.46712154,"ECCENTRICITY":0.00070425,"INCLINATION":97.3995,"RA_OF_ASC_NODE":120.6971,"ARG_OF_PERICENTER":260.1587,"MEAN_ANOMALY":99.8867,"EPHEMERIS_TYPE":0,"CLASSIFICATION_TYPE":"U","NORAD_CAT_ID":58318,"ELEMENT_SET_NO":999,"REV_AT_EPOCH":12478,"BSTAR":0.0005460864,"MEAN_MOTION_DOT":0.00027286,"MEAN_MOTION_DDOT":0},{"OBJECT_NAME":"FLOCK 4Q-15","OBJECT_ID":"2023-174BR","EPOCH":"2026-02-01T18:23:40.695072","MEAN_MOTION":15.52432772,"ECCENTRICITY":0.00062563,"INCLINATION":97.3986,"RA_OF_ASC_NODE":122.3845,"ARG_OF_PERICENTER":259.5171,"MEAN_ANOMALY":100.5377,"EPHEMERIS_TYPE":0,"CLASSIFICATION_TYPE":"U","NORAD_CAT_ID":58319,"ELEMENT_SET_NO":999,"REV_AT_EPOCH":12488,"BSTAR":0.0012134566,"MEAN_MOTION_DOT":0.00074679,"MEAN_MOTION_DDOT":0},{"OBJECT_NAME":"FLOCK 4Q-2","OBJECT_ID":"2023-174BS","EPOCH":"2026-02-01T21:39:18.609408","MEAN_MOTION":15.43111501,"ECCENTRICITY":0.00062958,"INCLINATION":97.3929,"RA_OF_ASC_NODE":118.7391,"ARG_OF_PERICENTER":262.7313,"MEAN_ANOMALY":97.3219,"EPHEMERIS_TYPE":0,"CLASSIFICATION_TYPE":"U","NORAD_CAT_ID":58320,"ELEMENT_SET_NO":999,"REV_AT_EPOCH":12469,"BSTAR":0.00050194408,"MEAN_MOTION_DOT":0.00022165,"MEAN_MOTION_DDOT":0},{"OBJECT_NAME":"FLOCK 4Q-9","OBJECT_ID":"2023-174BU","EPOCH":"2026-02-01T18:47:50.144064","MEAN_MOTION":15.42784255,"ECCENTRICITY":0.00062744,"INCLINATION":97.3962,"RA_OF_ASC_NODE":118.6637,"ARG_OF_PERICENTER":265.9676,"MEAN_ANOMALY":94.0854,"EPHEMERIS_TYPE":0,"CLASSIFICATION_TYPE":"U","NORAD_CAT_ID":58322,"ELEMENT_SET_NO":999,"REV_AT_EPOCH":12466,"BSTAR":0.00040682634,"MEAN_MOTION_DOT":0.00017742,"MEAN_MOTION_DDOT":0},{"OBJECT_NAME":"FLOCK 4Q-4","OBJECT_ID":"2023-174BZ","EPOCH":"2026-02-01T18:39:31.129632","MEAN_MOTION":15.42476176,"ECCENTRICITY":0.00057288,"INCLINATION":97.3923,"RA_OF_ASC_NODE":118.0686,"ARG_OF_PERICENTER":289.1986,"MEAN_ANOMALY":70.8641,"EPHEMERIS_TYPE":0,"CLASSIFICATION_TYPE":"U","NORAD_CAT_ID":58327,"ELEMENT_SET_NO":999,"REV_AT_EPOCH":12464,"BSTAR":0.00044742658,"MEAN_MOTION_DOT":0.00019323,"MEAN_MOTION_DDOT":0},{"OBJECT_NAME":"FLOCK 4Q-13","OBJECT_ID":"2023-174CA","EPOCH":"2026-02-01T22:26:21.376032","MEAN_MOTION":15.4482161,"ECCENTRICITY":0.00060775,"INCLINATION":97.4075,"RA_OF_ASC_NODE":120.4333,"ARG_OF_PERICENTER":282.4763,"MEAN_ANOMALY":77.5805,"EPHEMERIS_TYPE":0,"CLASSIFICATION_TYPE":"U","NORAD_CAT_ID":58328,"ELEMENT_SET_NO":999,"REV_AT_EPOCH":12474,"BSTAR":0.00051108347,"MEAN_MOTION_DOT":0.00023916,"MEAN_MOTION_DDOT":0},{"OBJECT_NAME":"FLOCK 4Q-21","OBJECT_ID":"2023-174CB","EPOCH":"2026-02-01T22:27:05.714784","MEAN_MOTION":15.53568242,"ECCENTRICITY":0.00052357,"INCLINATION":97.3996,"RA_OF_ASC_NODE":123.0287,"ARG_OF_PERICENTER":286.0403,"MEAN_ANOMALY":74.0273,"EPHEMERIS_TYPE":0,"CLASSIFICATION_TYPE":"U","NORAD_CAT_ID":58329,"ELEMENT_SET_NO":999,"REV_AT_EPOCH":12493,"BSTAR":0.0010250959,"MEAN_MOTION_DOT":0.00065613,"MEAN_MOTION_DDOT":0},{"OBJECT_NAME":"FLOCK 4BE-18","OBJECT_ID":"2024-149N","EPOCH":"2026-02-01T18:01:42.939552","MEAN_MOTION":15.36689289,"ECCENTRICITY":0.00045435,"INCLINATION":97.3843,"RA_OF_ASC_NODE":115.5076,"ARG_OF_PERICENTER":34.0636,"MEAN_ANOMALY":326.0899,"EPHEMERIS_TYPE":0,"CLASSIFICATION_TYPE":"U","NORAD_CAT_ID":60480,"ELEMENT_SET_NO":999,"REV_AT_EPOCH":8147,"BSTAR":0.00047949168,"MEAN_MOTION_DOT":0.00017124,"MEAN_MOTION_DDOT":0},{"OBJECT_NAME":"FLOCK 4BE-7","OBJECT_ID":"2024-149P","EPOCH":"2026-02-01T18:53:48.114816","MEAN_MOTION":15.34974357,"ECCENTRICITY":0.00034299,"INCLINATION":97.3873,"RA_OF_ASC_NODE":115.2185,"ARG_OF_PERICENTER":42.7599,"MEAN_ANOMALY":317.3911,"EPHEMERIS_TYPE":0,"CLASSIFICATION_TYPE":"U","NORAD_CAT_ID":60481,"ELEMENT_SET_NO":999,"REV_AT_EPOCH":8144,"BSTAR":0.00040346232,"MEAN_MOTION_DOT":0.00013618,"MEAN_MOTION_DDOT":0},{"OBJECT_NAME":"FLOCK 4BE-16","OBJECT_ID":"2024-149R","EPOCH":"2026-02-01T18:19:30.109152","MEAN_MOTION":15.55227813,"ECCENTRICITY":0.00022473,"INCLINATION":97.3821,"RA_OF_ASC_NODE":116.8343,"ARG_OF_PERICENTER":332.9661,"MEAN_ANOMALY":27.1476,"EPHEMERIS_TYPE":0,"CLASSIFICATION_TYPE":"U","NORAD_CAT_ID":60483,"ELEMENT_SET_NO":999,"REV_AT_EPOCH":8155,"BSTAR":0.0022737886,"MEAN_MOTION_DOT":0.00156414,"MEAN_MOTION_DDOT":0},{"OBJECT_NAME":"FLOCK 4BE-26","OBJECT_ID":"2024-149S","EPOCH":"2026-02-01T18:43:42.767040","MEAN_MOTION":15.37936127,"ECCENTRICITY":0.00046084,"INCLINATION":97.3841,"RA_OF_ASC_NODE":115.2759,"ARG_OF_PERICENTER":13.6386,"MEAN_ANOMALY":346.4982,"EPHEMERIS_TYPE":0,"CLASSIFICATION_TYPE":"U","NORAD_CAT_ID":60484,"ELEMENT_SET_NO":999,"REV_AT_EPOCH":8146,"BSTAR":0.0016580674,"MEAN_MOTION_DOT":0.00062213,"MEAN_MOTION_DDOT":0},{"OBJECT_NAME":"FLOCK 4BE-36","OBJECT_ID":"2024-149U","EPOCH":"2026-02-01T16:04:15.794400","MEAN_MOTION":15.37492005,"ECCENTRICITY":0.00044812,"INCLINATION":97.3851,"RA_OF_ASC_NODE":115.9218,"ARG_OF_PERICENTER":44.4993,"MEAN_ANOMALY":315.6611,"EPHEMERIS_TYPE":0,"CLASSIFICATION_TYPE":"U","NORAD_CAT_ID":60486,"ELEMENT_SET_NO":999,"REV_AT_EPOCH":8149,"BSTAR":0.00047409166,"MEAN_MOTION_DOT":0.00017375,"MEAN_MOTION_DDOT":0},{"OBJECT_NAME":"FLOCK 4BE-25","OBJECT_ID":"2024-149V","EPOCH":"2026-02-01T19:05:07.267200","MEAN_MOTION":15.3473695,"ECCENTRICITY":0.00027946,"INCLINATION":97.391,"RA_OF_ASC_NODE":115.3725,"ARG_OF_PERICENTER":46.2285,"MEAN_ANOMALY":313.9189,"EPHEMERIS_TYPE":0,"CLASSIFICATION_TYPE":"U","NORAD_CAT_ID":60487,"ELEMENT_SET_NO":999,"REV_AT_EPOCH":8144,"BSTAR":0.00042112838,"MEAN_MOTION_DOT":0.00014111,"MEAN_MOTION_DDOT":0},{"OBJECT_NAME":"FLOCK 4BE-31","OBJECT_ID":"2024-149W","EPOCH":"2026-02-01T20:25:26.758560","MEAN_MOTION":15.38200191,"ECCENTRICITY":0.00033625,"INCLINATION":97.3906,"RA_OF_ASC_NODE":116.6599,"ARG_OF_PERICENTER":47.64,"MEAN_ANOMALY":312.5129,"EPHEMERIS_TYPE":0,"CLASSIFICATION_TYPE":"U","NORAD_CAT_ID":60488,"ELEMENT_SET_NO":999,"REV_AT_EPOCH":8153,"BSTAR":0.00052102113,"MEAN_MOTION_DOT":0.00019549,"MEAN_MOTION_DDOT":0}]
